IRIDIUM 57              
1 25273U 98019B   24344.95612310  .00000915  00000+0  31090-3 0  9990
2 25273  86.3982 224.4708 0002060  81.4014 278.7416 14.35629177397638
IRIDIUM 63              
1 25286U 98021B   24345.04780704  .00001180  00000+0  39766-3 0  9994
2 25286  86.3997 161.4259 0002045  93.4486 266.6945 14.36238271396968
IRIDIUM 69              
1 25319U 98026A   24345.08044186  .00001138  00000+0  35128-3 0  9998
2 25319  86.3997 175.2538 0000837 344.2144  15.9029 14.40580620396076
IRIDIUM 71              
1 25320U 98026B   24345.04550140  .00001178  00000+0  36191-3 0  9993
2 25320  86.3993 170.0000 0002769  37.6931 322.4462 14.40819857396607
IRIDIUM 73              
1 25344U 98032C   24345.44667719  .00001889  00000+0  47066-3 0  9993
2 25344  86.4414 126.9688 0001361  87.7504 272.3857 14.51225675403480
IRIDIUM 82              
1 25467U 98051A   24344.88296842  .00029198  00000+0  11613-2 0  9993
2 25467  86.3753 201.8492 0105106 290.8424  68.1587 15.20085824395081
